start=new Date('2022-02-09T00:00:00.000Z').valueOf();
sats=[{"SITE":"AFWTR","EPOCH":"2022-02-08T14:00:01.000224","EPHEMERIS_TYPE":"0","NORAD_CAT_ID":"50179","LAUNCH_DATE":"2021-12-18","TLE_LINE1":"1 50179U 21125Z   22039.58334491 -.00650329  00000-0 -56393-2 0  9991","FILE":"3295096","ARG_OF_PERICENTER":"294.8658","MEAN_ANOMALY":"28.8964","INCLINATION":"53.2176","REF_FRAME":"TEME","RA_OF_ASC_NODE":"107.9779","TIME_SYSTEM":"UTC","DECAY_DATE":null,"OBJECT_NAME":"STARLINK-3283","MEAN_ELEMENT_THEORY":"SGP4","APOAPSIS":"360.861","RCS_SIZE":"LARGE","MEAN_MOTION_DOT":"-0.00650329","CLASSIFICATION_TYPE":"U","SEMIMAJOR_AXIS":"6736.073","TLE_LINE2":"2 50179  53.2176 107.9779 0004340 294.8658  28.8964 15.70336014  3708","ECCENTRICITY":"0.00043400","OBJECT_TYPE":"PAYLOAD","ELEMENT_SET_NO":"999","CENTER_NAME":"EARTH","MEAN_MOTION":"15.70336014","COUNTRY_CODE":"US","GP_ID":"195549356","PERIOD":"91.700","BSTAR":"-0.00563930000000","REV_AT_EPOCH":"370","MEAN_MOTION_DDOT":"0.0000000000000","OBJECT_ID":"2021-125Z","PERIAPSIS":"355.014"},{"BSTAR":"-0.00420850000000","MEAN_MOTION_DDOT":"0.0000000000000","REV_AT_EPOCH":"846","PERIOD":"91.708","GP_ID":"195580130","MEAN_MOTION":"15.70209292","COUNTRY_CODE":"US","OBJECT_ID":"2021-125AA","PERIAPSIS":"353.885","DECAY_DATE":null,"OBJECT_NAME":"STARLINK-3265","MEAN_ELEMENT_THEORY":"SGP4","REF_FRAME":"TEME","RA_OF_ASC_NODE":"106.3292","TIME_SYSTEM":"UTC","FILE":"3295363","ARG_OF_PERICENTER":"279.7908","MEAN_ANOMALY":"136.7348","INCLINATION":"53.2174","EPOCH":"2022-02-08T22:00:01.999584","SITE":"AFWTR","EPHEMERIS_TYPE":"0","NORAD_CAT_ID":"50180","TLE_LINE1":"1 50180U 21125AA  22039.91668981 -.00492505  00000-0 -42085-2 0  9997","LAUNCH_DATE":"2021-12-18","ELEMENT_SET_NO":"999","CENTER_NAME":"EARTH","OBJECT_TYPE":"PAYLOAD","ECCENTRICITY":"0.00065540","TLE_LINE2":"2 50180  53.2174 106.3292 0006554 279.7908 136.7348 15.70209292  8460","APOAPSIS":"362.715","RCS_SIZE":"LARGE","MEAN_MOTION_DOT":"-0.00492505","CLASSIFICATION_TYPE":"U","SEMIMAJOR_AXIS":"6736.435"},{"REF_FRAME":"TEME","RA_OF_ASC_NODE":"106.3251","TIME_SYSTEM":"UTC","DECAY_DATE":null,"MEAN_ELEMENT_THEORY":"SGP4","OBJECT_NAME":"STARLINK-3285","EPOCH":"2022-02-08T22:00:01.999584","SITE":"AFWTR","NORAD_CAT_ID":"50181","EPHEMERIS_TYPE":"0","TLE_LINE1":"1 50181U 21125AB  22039.91668981 -.00514732  00000-0 -43637-2 0  9999","LAUNCH_DATE":"2021-12-18","FILE":"3295363","ARG_OF_PERICENTER":"282.8837","MEAN_ANOMALY":"137.1414","INCLINATION":"53.2174","OBJECT_TYPE":"PAYLOAD","ECCENTRICITY":"0.00069980","ELEMENT_SET_NO":"999","CENTER_NAME":"EARTH","RCS_SIZE":"LARGE","APOAPSIS":"362.311","MEAN_MOTION_DOT":"-0.00514732","CLASSIFICATION_TYPE":"U","SEMIMAJOR_AXIS":"6735.732","TLE_LINE2":"2 50181  53.2174 106.3251 0006998 282.8837 137.1414 15.70455129 11076","PERIOD":"91.693","BSTAR":"-0.00436370000000","REV_AT_EPOCH":"1107","MEAN_MOTION_DDOT":"0.0000000000000","MEAN_MOTION":"15.70455129","COUNTRY_CODE":"US","GP_ID":"195580636","OBJECT_ID":"2021-125AB","PERIAPSIS":"352.884"},{"GP_ID":"195580635","COUNTRY_CODE":"US","MEAN_MOTION":"15.70696068","REV_AT_EPOCH":"1107","MEAN_MOTION_DDOT":"0.0000000000000","BSTAR":"-0.00446750000000","PERIOD":"91.679","PERIAPSIS":"351.788","OBJECT_ID":"2021-125AC","INCLINATION":"53.2178","MEAN_ANOMALY":"136.8360","ARG_OF_PERICENTER":"286.5558","FILE":"3295363","LAUNCH_DATE":"2021-12-18","TLE_LINE1":"1 50182U 21125AC  22039.91668981 -.00531486  00000-0 -44675-2 0  9998","NORAD_CAT_ID":"50182","EPHEMERIS_TYPE":"0","EPOCH":"2022-02-08T22:00:01.999584","SITE":"AFWTR","MEAN_ELEMENT_THEORY":"SGP4","OBJECT_NAME":"STARLINK-3277","DECAY_DATE":null,"TIME_SYSTEM":"UTC","RA_OF_ASC_NODE":"106.3204","REF_FRAME":"TEME","TLE_LINE2":"2 50182  53.2178 106.3204 0007602 286.5558 136.8360 15.70696068 11078","SEMIMAJOR_AXIS":"6735.043","CLASSIFICATION_TYPE":"U","MEAN_MOTION_DOT":"-0.00531486","APOAPSIS":"362.028","RCS_SIZE":"LARGE","CENTER_NAME":"EARTH","ELEMENT_SET_NO":"999","ECCENTRICITY":"0.00076020","OBJECT_TYPE":"PAYLOAD"},{"MEAN_MOTION_DDOT":"0.0000000000000","REV_AT_EPOCH":"846","BSTAR":"-0.00388880000000","PERIOD":"91.689","GP_ID":"195580724","COUNTRY_CODE":"US","MEAN_MOTION":"15.70531257","PERIAPSIS":"353.020","OBJECT_ID":"2021-125AD","MEAN_ELEMENT_THEORY":"SGP4","OBJECT_NAME":"STARLINK-3281","DECAY_DATE":null,"TIME_SYSTEM":"UTC","RA_OF_ASC_NODE":"106.3228","REF_FRAME":"TEME","INCLINATION":"53.2178","MEAN_ANOMALY":"137.5439","ARG_OF_PERICENTER":"284.2058","FILE":"3295363","LAUNCH_DATE":"2021-12-18","TLE_LINE1":"1 50183U 21125AD  22039.91668981 -.00462898  00000-0 -38888-2 0  9998","NORAD_CAT_ID":"50183","EPHEMERIS_TYPE":"0","EPOCH":"2022-02-08T22:00:01.999584","SITE":"AFWTR","CENTER_NAME":"EARTH","ELEMENT_SET_NO":"999","ECCENTRICITY":"0.00064720","OBJECT_TYPE":"PAYLOAD","TLE_LINE2":"2 50183  53.2178 106.3228 0006472 284.2058 137.5439 15.70531257  8461","SEMIMAJOR_AXIS":"6735.515","MEAN_MOTION_DOT":"-0.00462898","CLASSIFICATION_TYPE":"U","RCS_SIZE":"LARGE","APOAPSIS":"361.739"},{"REF_FRAME":"TEME","RA_OF_ASC_NODE":"106.3276","TIME_SYSTEM":"UTC","DECAY_DATE":null,"MEAN_ELEMENT_THEORY":"SGP4","OBJECT_NAME":"STARLINK-3279","EPOCH":"2022-02-08T22:00:01.999584","SITE":"AFWTR","EPHEMERIS_TYPE":"0","NORAD_CAT_ID":"50185","LAUNCH_DATE":"2021-12-18","TLE_LINE1":"1 50185U 21125AF  22039.91668981 -.00478315  00000-0 -40624-2 0  9992","FILE":"3295363","ARG_OF_PERICENTER":"280.4490","MEAN_ANOMALY":"137.8521","INCLINATION":"53.2175","OBJECT_TYPE":"PAYLOAD","ECCENTRICITY":"0.00065330","ELEMENT_SET_NO":"999","CENTER_NAME":"EARTH","RCS_SIZE":"LARGE","APOAPSIS":"362.400","CLASSIFICATION_TYPE":"U","MEAN_MOTION_DOT":"-0.00478315","SEMIMAJOR_AXIS":"6736.134","TLE_LINE2":"2 50185  53.2175 106.3276 0006533 280.4490 137.8521 15.70314521 11078","PERIOD":"91.701","BSTAR":"-0.00406240000000","MEAN_MOTION_DDOT":"0.0000000000000","REV_AT_EPOCH":"1107","MEAN_MOTION":"15.70314521","COUNTRY_CODE":"US","GP_ID":"195580719","OBJECT_ID":"2021-125AF","PERIAPSIS":"353.599"},{"COUNTRY_CODE":"US","MEAN_MOTION":"15.39472006","GP_ID":"195580628","PERIOD":"93.539","BSTAR":"-0.01473800000000","REV_AT_EPOCH":"1103","MEAN_MOTION_DDOT":"0.0000000000000","OBJECT_ID":"2021-125AG","PERIAPSIS":"446.485","EPOCH":"2022-02-08T22:00:01.999584","SITE":"AFWTR","LAUNCH_DATE":"2021-12-18","TLE_LINE1":"1 50186U 21125AG  22039.91668981 -.00546820  00000-0 -14738-1 0  9996","EPHEMERIS_TYPE":"0","NORAD_CAT_ID":"50186","ARG_OF_PERICENTER":"26.5858","FILE":"3295363","INCLINATION":"53.2178","MEAN_ANOMALY":"29.5288","RA_OF_ASC_NODE":"109.2748","REF_FRAME":"TEME","TIME_SYSTEM":"UTC","DECAY_DATE":null,"OBJECT_NAME":"STARLINK-3274","MEAN_ELEMENT_THEORY":"SGP4","RCS_SIZE":"LARGE","APOAPSIS":"448.859","SEMIMAJOR_AXIS":"6825.807","CLASSIFICATION_TYPE":"U","MEAN_MOTION_DOT":"-0.00546820","TLE_LINE2":"2 50186  53.2178 109.2748 0001739  26.5858  29.5288 15.39472006 11039","OBJECT_TYPE":"PAYLOAD","ECCENTRICITY":"0.00017390","CENTER_NAME":"EARTH","ELEMENT_SET_NO":"999"},{"MEAN_ANOMALY":"63.1097","INCLINATION":"53.2171","FILE":"3295363","ARG_OF_PERICENTER":"14.3869","NORAD_CAT_ID":"50187","EPHEMERIS_TYPE":"0","TLE_LINE1":"1 50187U 21125AH  22039.91668981  .00028650  00000-0  20752-3 0  9996","LAUNCH_DATE":"2021-12-18","SITE":"AFWTR","EPOCH":"2022-02-08T22:00:01.999584","MEAN_ELEMENT_THEORY":"SGP4","OBJECT_NAME":"STARLINK-3272","DECAY_DATE":null,"TIME_SYSTEM":"UTC","REF_FRAME":"TEME","RA_OF_ASC_NODE":"106.3008","TLE_LINE2":"2 50187  53.2171 106.3008 0002764  14.3869  63.1097 15.73235531  8469","CLASSIFICATION_TYPE":"U","MEAN_MOTION_DOT":"0.00028650","SEMIMAJOR_AXIS":"6727.794","RCS_SIZE":"LARGE","APOAPSIS":"351.518","ELEMENT_SET_NO":"999","CENTER_NAME":"EARTH","ECCENTRICITY":"0.00027640","OBJECT_TYPE":"PAYLOAD","GP_ID":"195580627","MEAN_MOTION":"15.73235531","COUNTRY_CODE":"US","REV_AT_EPOCH":"846","MEAN_MOTION_DDOT":"0.0000000000000","BSTAR":"0.00020752000000","PERIOD":"91.531","PERIAPSIS":"347.799","OBJECT_ID":"2021-125AH"},{"MEAN_MOTION":"15.73214093","COUNTRY_CODE":"US","GP_ID":"195580720","PERIOD":"91.532","BSTAR":"-0.00005543500000","MEAN_MOTION_DDOT":"0.0000000000000","REV_AT_EPOCH":"846","OBJECT_ID":"2021-125AJ","PERIAPSIS":"347.912","SITE":"AFWTR","EPOCH":"2022-02-08T22:00:01.999584","EPHEMERIS_TYPE":"0","NORAD_CAT_ID":"50188","TLE_LINE1":"1 50188U 21125AJ  22039.91668981 -.00008401  00000-0 -55435-4 0  9998","LAUNCH_DATE":"2021-12-18","FILE":"3295363","ARG_OF_PERICENTER":"15.1026","MEAN_ANOMALY":"61.5301","INCLINATION":"53.2161","REF_FRAME":"TEME","RA_OF_ASC_NODE":"106.2978","TIME_SYSTEM":"UTC","DECAY_DATE":null,"MEAN_ELEMENT_THEORY":"SGP4","OBJECT_NAME":"STARLINK-3275","RCS_SIZE":"LARGE","APOAPSIS":"351.528","MEAN_MOTION_DOT":"-0.00008401","CLASSIFICATION_TYPE":"U","SEMIMAJOR_AXIS":"6727.855","TLE_LINE2":"2 50188  53.2161 106.2978 0002687  15.1026  61.5301 15.73214093  8462","ECCENTRICITY":"0.00026870","OBJECT_TYPE":"PAYLOAD","ELEMENT_SET_NO":"999","CENTER_NAME":"EARTH"},{"PERIOD":"91.760","REV_AT_EPOCH":"370","MEAN_MOTION_DDOT":"0.0000000000000","BSTAR":"-0.00585680000000","MEAN_MOTION":"15.69311490","COUNTRY_CODE":"US","GP_ID":"195550110","PERIAPSIS":"358.296","OBJECT_ID":"2021-125AK","TIME_SYSTEM":"UTC","REF_FRAME":"TEME","RA_OF_ASC_NODE":"107.9555","OBJECT_NAME":"STARLINK-3276","MEAN_ELEMENT_THEORY":"SGP4","DECAY_DATE":null,"EPHEMERIS_TYPE":"0","NORAD_CAT_ID":"50189","TLE_LINE1":"1 50189U 21125AK  22039.58334491 -.00647171  00000-0 -58568-2 0  9999","LAUNCH_DATE":"2021-12-18","EPOCH":"2022-02-08T14:00:01.000224","SITE":"AFWTR","MEAN_ANOMALY":"46.2175","INCLINATION":"53.2176","FILE":"3295096","ARG_OF_PERICENTER":"278.0256","ECCENTRICITY":"0.00038190","OBJECT_TYPE":"PAYLOAD","ELEMENT_SET_NO":"999","CENTER_NAME":"EARTH","CLASSIFICATION_TYPE":"U","MEAN_MOTION_DOT":"-0.00647171","SEMIMAJOR_AXIS":"6739.004","RCS_SIZE":"LARGE","APOAPSIS":"363.443","TLE_LINE2":"2 50189  53.2176 107.9555 0003819 278.0256  46.2175 15.69311490  3706"}];
